#aV2014  8 17  0  0  0.00000000     288 DD+AD WGS84 FIT  NGA
## 1806      0.00000000   300.00000000 56886 0.0000000000000
+   32     1  2  3  4  5  6  7  8  9 10 11 12 13 14 15 16 17
+         18 19 20 21 22 23 24 25 26 27 28 29 30 31 32  0  0
+          0  0  0  0  0  0  0  0  0  0  0  0  0  0  0  0  0
+          0  0  0  0  0  0  0  0  0  0  0  0  0  0  0  0  0
+          0  0  0  0  0  0  0  0  0  0  0  0  0  0  0  0  0
++         2  2  2  2  2  2  2  2  2  2  2  2  2  2  2  2  2
++         2  2  2  2  2  2  2  2  2  2  2  2  2  2  2  0  0
++         0  0  0  0  0  0  0  0  0  0  0  0  0  0  0  0  0
++         0  0  0  0  0  0  0  0  0  0  0  0  0  0  0  0  0
++         0  0  0  0  0  0  0  0  0  0  0  0  0  0  0  0  0
%c cc cc ccc ccc cccc cccc cccc cccc ccccc ccccc ccccc ccccc
%c cc cc ccc ccc cccc cccc cccc cccc ccccc ccccc ccccc ccccc
%f  0.0000000  0.000000000  0.00000000000  0.000000000000000
%f  0.0000000  0.000000000  0.00000000000  0.000000000000000
%i    0    0    0    0      0      0      0      0         0
%i    0    0    0    0      0      0      0      0         0
/*      NGA, ST. LOUIS,MO.                                  
/*   EPHEMERIS COMPUTED FROM  1 DAYS OF DATA                
/*   EPOCHA SMOOTHER                                       
/* CCCCCCCCCCCCCCCCCCCCCCCCCCCCCCCCCCCCCCCCCCCCCCCCCCCCCCCCC
*  2014  8 17  4 30  0.00000000
P  1 -13522.037798  21167.355547   8353.313154     19.741486                    
V  1    947.792693 -11003.663797  29424.585716      0.006494                    
P  2  15552.604081   1894.630716 -21103.497672    513.022647                    
V  2  -7646.669581  26568.583402  -3684.719467      0.021761                    
P  3 -19283.184210    764.274878  17742.418640    404.885206                    
V  3 -16868.766644 -16751.223192 -16948.332656      0.049691                    
P  4  -3004.671393  25379.340614  -6968.478887     -0.054400                    
V  4  -5995.398290   7020.035730  29734.801677     -0.001518                    
P  5  26051.327960  -1213.756227  -5527.116238   -348.606150                    
V  5  -6217.028976   4323.056317 -30289.906243      0.034659                    
P  6   9756.891814  14602.302078 -19939.590983     -4.419805                    
V  6  -9153.680354  23601.306764  12799.624963     -0.009596                    
P  7  -5809.536979  25279.131897   4827.789299    381.022576                    
V  7  -4596.209979   4786.095183 -31467.588787      0.042908                    
P  8  -5205.742139  24100.938708   9109.957153     15.176403                    
V  8  -6826.789051   9436.587570 -30066.878712      0.001281                    
P  9   2938.114707 -17777.312717  19906.651081     16.356565                    
V  9  17119.717266  17847.148151  13396.819506      0.045809                    
P 10  16709.522399  10472.648703 -18328.182966   -138.196959                    
V 10 -21836.091924   5569.860542 -16626.476260     -0.016374                    
P 11 -12835.340664  16474.384212  15801.515662   -513.950267                    
V 11  -3310.067051 -21334.507027  19142.260294     -0.029558                    
P 12  21561.706805 -10712.914215 -11043.136624    225.477241                    
V 12  14058.499845   -329.767158  28171.219951      0.026036                    
P 13  -1350.465059  19419.161810 -18114.913270    -31.824297                    
V 13 -14192.597764 -17865.966471 -18386.016761     -0.039026                    
P 14 -14116.821420 -22412.849430   3119.176890    144.044211                    
V 14   4099.927730   1496.546349  31512.460485     -0.036360                    
P 15  15101.442067  -6422.440081  20871.265301   -197.349209                    
V 15  17874.138040  19818.307387  -6518.976850     -0.022099                    
P 16 -26198.180756    -66.403673  -5472.963327   -200.942251                    
V 16   6513.584775  -2472.638200 -31134.667342      0.023859                    
P 17  14570.149870  22109.626174   3561.680033   -117.066034                    
V 17  -4400.248020  -1815.801877  31375.004859     -0.027398                    
P 18   1124.996176 -16530.935434  21185.021396    338.587324                    
V 18  25631.039092  -4587.271298  -5379.373018      0.024968                    
P 19 -16668.222269   1182.224682  20587.089110   -473.904787                    
V 19 -14872.912730 -21797.450430 -10267.010222     -0.019569                    
P 20 -17296.725128  15086.961387 -13498.870749    222.928406                    
V 20 -17152.838325   1446.241147  23997.742558      0.043530                    
P 21    644.110683 -24742.287680   9665.303776   -378.797165                    
V 21   6955.666578  -9875.023328 -28040.314158     -0.021311                    
P 22 -13330.741174 -12382.094274  19618.212171    259.575964                    
V 22  23733.413638  -6403.413443  12055.950637      0.034737                    
P 23  -8861.955590  12966.779121 -21249.459496    -45.107731                    
V 23 -18362.330573 -20298.002749  -5125.170087     -0.029512                    
P 24  14861.696172 -18470.144055  11857.205776    -33.637118                    
V 24  -2285.972152  15174.966678  26555.056345     -0.006641                    
P 25  10648.746391 -15222.296269 -19007.544084     23.499779                    
V 25  23750.124499  -3503.594475  16306.021573     -0.006475                    
P 26  19058.309804   7529.110902  16397.607647    -22.481928                    
V 26  11434.678416  18787.427370 -20813.092270     -0.130429                    
P 27 -20683.528183  -8315.320513  14474.683751      6.728075                    
V 27 -10634.641690 -15114.143640 -23787.431358      0.031971                    
P 28   8165.897794  13558.116241  21958.502183    377.719188                    
V 28 -26092.288230   3727.365466   7490.750489      0.027457                    
P 29    -80.635293 -19765.776192 -17733.631269    554.160304                    
V 29  15073.326441  16814.347475 -18736.717104      0.025135                    
P 30   1313.801916  22326.517728  14286.091953    -49.517979                    
V 30  -9211.124265  15819.667750 -23914.151371     -0.054342                    
P 31 -10190.346851 -12672.686953 -20779.198986    332.639670                    
V 31  10248.507680 -24737.199887  10287.168012     -0.003335                    
P 32 -25523.457803   5218.995029  -3287.122694   -361.152323                    
V 32  -4680.846147  -3186.327998  31435.570432      0.084203                    
EOF
